#dP2023 11 19 18  0  0.00000000      96 __u+U IGS20 EXT  IAC
## 2289  64800.00000000   900.00000000 60267 0.7500000000000
+  118   C06C07C08C09C10C11C12C13C14C16C19C20C21C22C23C24C25
+        C26C27C28C29C30C32C33C34C35C36C37C38C39C40C41C42C43
+        C44C45C46E02E03E04E05E07E08E09E10E11E12E13E15E19E21
+        E24E25E26E27E30E31E33E34E36G01G02G03G04G05G06G07G08
+        G09G10G11G12G13G14G15G16G17G18G19G20G21G22G23G24G25
+        G26G27G28G29G30G31G32J02J03J04R01R02R03R04R05R07R08
+        R09R11R12R13R14R15R16R17R18R19R20R21R22R24R25R26  0
++        10 10  9 10  8 10  9 10  8  9  8  8  7  9  8  8  8
++         7  8  8  9 10  8  8  9  9  8  9 10  8  9  9  7  8
++         8 10 10 10  7  7  7  7  8  7  7  7  8  7  6  7  9
++         9  8  8  9  8  9  8  8  9  8  8  8  6  9  8 10  8
++         7  8  8  7 10  8  7  7  8  8  8  9  8  7  8  8 10
++         7  7  7  8  7  7  7  7  9 10  7  7  7  9  8  8  8
++         7  8  8  8  6  8  9  7  8  8  9  8  8  8  7  8  0
%c M  cc GPS ccc cccc cccc cccc cccc ccccc ccccc ccccc ccccc
%c cc cc ccc ccc cccc cccc cccc cccc ccccc ccccc ccccc ccccc
%f  0.0000000  0.000000000  0.00000000000  0.000000000000000
%f  0.0000000  0.000000000  0.00000000000  0.000000000000000
%i    0    0    0    0      0      0      0      0         0
%i    0    0    0    0      0      0      0      0         0
/* IAC                                ULTRA-RAPID PREDICTION
/* S/V CLOCKS ARE ALIGNED TO GNSS TIME                      
/* G:C1WC2W R:C1PC2P E:C1XC5X C:C2IC6I J:C1CC2S             
/* PCV:IGS20_2287 OL/AL:FES2004  NONE     YN ORB:CoN CLK:CoN
*  2023 11 19 23 15  0.00000000
PC06 -16877.618403  37536.289563  -9785.273742     31.193831
PC07  -2991.861059  33782.719299 -24859.547013   -345.216696
PC08 -11341.076282  19360.606416  35661.326132    230.507477
PC09 -10969.103854  36521.701955 -18204.230209   -111.014989
PC10   5140.428372  36722.685154 -19252.050889    -23.251960
PC11   6458.717695 -26862.189105  -3933.012854    264.809624
PC12  15752.740573 -18484.803107  13801.076378    853.226514
PC13  -4175.917472  21729.144049  36028.302924    384.945978
PC14  -3137.594902 -21168.338617 -17929.400537    817.518467
PC16 -19484.225965  37016.518941  -6300.903016   -184.044137
PC19  11546.349214  23000.662670  10789.023234   -966.374746
PC20  -4280.963462  16963.929859  21738.952166    101.896989
PC21  18938.664165    -71.504470 -20483.213265   -969.735447
PC22  21631.296930  16146.493916  -7057.452357   -218.591656
PC23 -21041.990565  -7497.051004  16719.540284   -818.301097
PC24  17389.241065 -15466.414573  15404.235700    612.944237
PC25  -3844.712640 -15835.501818  22641.008127    259.487681
PC26  27061.315498  -6897.024622    -98.386590   -208.604470
PC27 -17364.379156  10272.089227 -19297.645963    230.528112
PC28 -13846.688954  -8663.121322 -22617.659472    174.032205
PC29   1902.650368  25123.010598  11996.828609    203.623150
PC30 -11151.386430  24870.380816  -6036.467670     -8.681829
PC32 -19020.475766    107.143669  20429.209617   -536.026360
PC33 -11616.892040 -22938.380248 -10859.005638   -944.223312
PC34  10349.278910 -25489.192521   4621.722074    307.081229
PC35  14267.924029   8089.836273  22573.461468    499.104266
PC36   2513.545415  16128.564312 -22616.134053   -127.215698
PC37 -27263.036036   5835.466350    743.526402   -892.821156
PC38 -19801.315533  20053.645903  31340.188984    118.799930
PC39 -19843.964221  37316.569468  -1819.770355     -5.735492
PC40  -6428.910756  29989.280374 -28796.876653    -44.644028
PC41 -21565.109485 -16548.854678   6365.171170   -871.475952
PC42   5644.904168 -15977.218393 -22138.999733   -495.984603
PC43  -1288.734539 -25514.067839 -11213.397922     48.954232
PC44  17077.480641 -10672.122550  19298.698895    297.952089
PC45  21458.649255   7074.761538 -16402.051437    -47.663431
PC46 -16337.876224  15678.324221 -16289.329740   -101.082489
PE02 -13730.912056  12025.327427 -23301.782396     79.846590
PE03  -8257.400385  22526.895911  17321.182729    -74.604330
PE04  -5104.436662 -29153.700557   -245.404953   -261.362955
PE05 -16738.532779   2901.572948  24235.612547   4692.532161
PE07  15357.066845  18983.602604 -16732.268862    -88.698467
PE08   4764.925588  29200.594507    786.355312   -179.605506
PE09 -15226.065241 -19123.861971  16692.193502   -233.746717
PE10  -6413.317549 -15244.882857 -24550.040235   -580.149501
PE11 -15812.442830  -6988.222938 -24031.852884   3217.652199
PE12   2884.446660 -20404.644345 -21241.792874   -784.168358
PE13  15203.662860   7542.133027  24260.187854    -19.609615
PE15  -3390.602026  20564.819171  21028.241588    -70.279599
PE19   9705.962583 -20547.369264 -18964.358228  -1180.744860
PE21  27014.832005    986.443541  12066.503959   -564.961760
PE24 -24843.704419 -14385.427309   7142.363497   -440.948608
PE25 -27133.660670  -1265.197375 -11744.797101     -3.180397
PE26  24776.834869 -10157.599268  12633.521195    285.875809
PE27  25182.297684  14057.746093  -6696.989669   -204.087895
PE30   8097.709405  18758.338065 -21433.787894   -675.823217
PE31  -8512.586671 -18698.350846  21312.198158    -10.302082
PE33  20102.304991 -21167.524732  -4933.558147      2.676961
PE34 -19689.794178  21388.557000   5529.163291    -78.877196
PE36 -24625.635293   9696.902532 -13249.547354   -146.376741
PG01  11688.399419 -20164.990133 -12747.831325    163.230726
PG02  15449.033766 -20625.774004  -5467.581102   -526.710978
PG03   3159.118313 -14580.313326 -22123.888864     -2.769883
PG04   1780.984907 -25299.392832  -7649.254504    217.511993
PG05 -16931.203013   8144.298660  18632.587732   -151.023543
PG06 -19932.320483   1510.125589 -17470.927329    501.413446
PG07  -5550.605019 -15300.270368  21393.718540      9.056175
PG08   6873.999081 -20258.811008  15392.313417   -152.915894
PG09  -7010.355327 -25443.823134   2613.697370      2.073289
PG10  24068.092967  11183.261036   3470.954213    -62.054973
PG11 -22992.972110  10591.282202  -7925.903004   -467.237920
PG12  -5766.656606  14145.907623 -22007.710597   -448.805515
PG13 -13169.795843  11360.259425  19807.088472    597.085669
PG14 -22019.141368 -13611.546752   6365.946449    248.027638
PG15  -4148.169719  21438.905184  14479.148606     98.804583
PG16  21682.147076  -1589.033954  15246.306213   -419.094498
PG17 -12493.955385 -17297.914774 -15293.500978    723.062063
PG18   6350.309144  13852.884655  21747.146608   -483.896176
PG19 -14724.756226  -8760.483428 -20577.481875    401.237692
PG20 -24802.129236   2143.027876   9039.794630    400.777331
PG21  17140.158249 -19423.298083  -2244.302937    143.822436
PG22 -23998.943109 -10975.129739   -374.049223     80.818641
PG23  16066.959253  15591.815922  14446.478969    101.780089
PG24 -13513.724418  21489.018313  -7427.743870   -375.170823
PG25   8340.826679  17144.617820 -18926.063133    478.119809
PG26  25850.494613   2403.588874   6318.645688    215.459123
PG27  13646.942815  -7304.200004  21273.128043    -72.254385
PG28  19091.161376    187.963186 -18491.622141    -50.041687
PG29   4249.936426  26046.024695   2416.388272   -610.185418
PG30 -14914.620564  -7552.235731  20806.400303   -466.443002
PG31  22726.360064  -6875.385414 -12519.112417   -225.895130
PG32  14916.300435  13202.658839 -17485.016392   -587.661484
PJ02 -26939.742935  15992.559375 -23552.998478     -0.224011
PJ03 -26434.905269  32490.723531   -654.106108     -8.836610
PJ04 -26120.134723  26057.844986  26318.187761     72.656322
PR01   7271.850259  21118.176557  12313.945962     70.218731
PR02  15307.008481  19760.264541  -5242.352775    -22.325117
PR03  15109.268620   6601.541567 -19447.436602     89.360964
PR04   6392.117362  -9633.746051 -22711.538383    211.794180
PR05  -5533.395380 -20796.026372 -13664.396874    122.496442
PR07 -14798.232906  -5666.358078  20003.825555     69.510288
PR08  -6280.367955   9978.877942  22677.688773    -73.344779
PR09 -17532.582385  -7165.078074  17143.919133    154.160670
PR11 -20076.357031   7732.091642 -13708.141153   -214.412013
PR12  -1226.449003  11066.782000 -22926.713078     33.610683
PR13  15451.561133   7989.529413 -18675.394093    -41.484204
PR14  25429.157586   -672.932302  -1760.989995     25.570049
PR15  19100.334575  -8136.998079  14834.026965     84.638582
PR16   1492.039543 -10945.794089  22996.367053     20.784370
PR17  13778.106019  -5974.294473  20647.652020     36.391711
PR18  14591.320278 -19173.743160   8329.463992    112.810183
PR19   9534.244764 -22641.890379  -6873.873852   -255.254129
PR20  -4164.974417 -12287.710636 -21939.137375   -103.807507
PR21 -13911.309376   6507.895607 -20348.551080    -54.697877
PR22 -15068.371218  19272.675146  -7209.195047     94.345610
PR24   5427.741151  11831.068034  21956.799714    -32.791668
PR25 -14236.205028   5220.570445 -20494.710685     -4.914886
PR26  -6652.692493   9410.893495  22769.846837    -15.980177
EOF
